HORYU-4                 
1 41340U 16012D   20013.73600788  .00000444  00000-0  26937-4 0  9990
2 41340  31.0040 243.3743 0013738  42.8363 317.3341 15.01395342214457
E-ST@R-II               
1 41459U 16025D   20014.47347644  .00001204  00000-0  64944-4 0  9991
2 41459  98.0992 116.5506 0166201  13.7172 346.8465 15.05981946204115
AAUSAT 4                
1 41460U 16025E   20014.50573762  .00000937  00000-0  50291-4 0  9991
2 41460  98.0944 118.4005 0155958   3.8737 356.3658 15.08082391204280
DIWATA-1                
1 41463U 98067HT  20014.67139302  .00053591  12428-4  13472-3 0  9990
2 41463  51.6232 227.2342 0001829 187.5137 281.9062 15.96098889213123
BEESAT-4                
1 41619U 16040W   20014.12271534  .00001237  00000-0  54509-4 0  9994
2 41619  97.3420  77.1825 0011440  15.6112 344.5476 15.23610256185743
CANX-7                  
1 41788U 16059F   20014.40343362  .00007045  00000-0  10177-2 0  9995
2 41788  98.2522  98.6277 0026395  81.3285 279.0925 14.76286403176929
RAVAN                   
1 41849U 16067B   20013.75634639  .00000381  00000-0  37117-4 0  9990
2 41849  97.9248 121.0948 0008634  50.3453 309.8529 14.98415339173300
CELTEE 1                
1 41850U 16067C   20014.21314033  .00000057  00000-0  10198-4 0  9997
2 41850  97.9204 119.7262 0009525  51.1683 309.0387 14.97103540173278
OPTICUBE 04             
1 41851U 16067D   20014.51907154 -.00000017  00000-0  37818-5 0  9999
2 41851  97.9208 119.7347 0010166  52.6712 307.5433 14.96877158173300
AEROCUBE 8D             
1 41852U 16067E   20014.19765206 -.00000326  00000-0 -23114-4 0  9991
2 41852  97.9212 119.2375 0010670  52.3903 307.8285 14.96824706173232
AEROCUBE 8C             
1 41853U 16067F   20014.09187885  .00000511  00000-0  49970-4 0  9994
2 41853  97.9205 119.0486 0010958  55.6747 304.5510 14.96786007173211
PROMETHEUS 2-1          
1 41854U 16067G   20013.69119893  .00000622  00000-0  59176-4 0  9996
2 41854  97.9214 118.8793 0011150  56.0865 304.1414 14.97058662173164
PROMETHEUS 2-3          
1 41855U 16067H   20014.36103409  .00000750  00000-0  70262-4 0  9999
2 41855  97.9217 119.5829 0011359  54.4652 305.7627 14.97068925173260
INS-1B                  
1 41954U 17008G   20014.18904910  .00001166  00000-0  50422-4 0  9999
2 41954  97.3757  81.2336 0010518 123.3516 236.8730 15.24404469161716
BGUSAT                  
1 41999U 17008BD  20014.18535740  .00002043  00000-0  80090-4 0  9998
2 41999  97.3848  84.5555 0009366 132.6902 227.5127 15.26873988161250
DIDO-2                  
1 42000U 17008BE  20014.12746150  .00000806  00000-0  35942-4 0  9996
2 42000  97.3768  81.7177 0009552 139.2408 220.9546 15.24223931161106
PEASSS                  
1 42015U 17008BV  20013.82249734  .00001040  00000-0  44172-4 0  9990
2 42015  97.3784  82.7212 0007333 141.7548 218.4211 15.25274142161628
AL-FARABI 1             
1 42016U 17008BW  20014.12118192  .00001393  00000-0  56937-4 0  9991
2 42016  97.3806  83.8207 0007225 139.8826 220.2947 15.26020847161839
NAYIF-1 (EO-88)         
1 42017U 17008BX  20014.16943474  .00001401  00000-0  57167-4 0  9991
2 42017  97.3803  83.8801 0007237 139.6915 220.4861 15.26058304161866
NSIGHT                  
1 42726U 98067MF  20014.28923407  .00054657  00000-0  23496-3 0  9997
2 42726  51.6315 308.5003 0001175 215.4246 144.6679 15.84486011150888
UCLSAT                  
1 42765U 17036A   20014.39863229  .00001089  00000-0  48962-4 0  9991
2 42765  97.3244  72.6373 0010645 204.4668 155.6065 15.23171436142388
LITUANICASAT-2          
1 42768U 17036D   20014.15646506  .00001886  00000-0  81807-4 0  9995
2 42768  97.3286  72.1677 0014460 197.0257 163.0497 15.23487214142194
AALTO-1                 
1 42775U 17036L   20014.13469973  .00000683  00000-0  33224-4 0  9996
2 42775  97.3222  70.6175 0013346 198.7293 161.3454 15.21615160142058
URSA MAIOR              
1 42776U 17036M   20013.87839207  .00000776  00000-0  37159-4 0  9992
2 42776  97.3234  70.5893 0013146 199.4137 160.6600 15.21773522142020
COMPASS 2               
1 42777U 17036N   20014.16964691  .00001453  00000-0  63822-4 0  9991
2 42777  97.3283  72.6395 0011924 197.0381 163.0458 15.23453417142154
DIAMOND RED             
1 42783U 17036U   20014.39182113  .00000856  00000-0  39816-4 0  9996
2 42783  97.3244  72.0505 0011312 206.7122 153.3533 15.22547125142152
PEGASUS                 
1 42784U 17036V   20014.13062248  .00001030  00000-0  46853-4 0  9999
2 42784  97.3248  72.1248 0011174 206.7475 153.3186 15.22887176142134
DIAMOND GREEN           
1 42785U 17036W   20013.40482565  .00000904  00000-0  41893-4 0  9995
2 42785  97.3248  71.1189 0011111 210.9499 149.1084 15.22546506142074
DIAMOND BLUE            
1 42786U 17036X   20013.40400518  .00000887  00000-0  41176-4 0  9998
2 42786  97.3246  71.1149 0010940 211.1810 148.8779 15.22545395141990
NUDTSAT                 
1 42787U 17036Y   20013.91887969  .00001337  00000-0  57988-4 0  9993
2 42787  97.3292  72.9798 0009758 208.9015 151.1687 15.24036678142006
SUCHAI                  
1 42788U 17036Z   20014.14198834  .00001218  00000-0  54078-4 0  9991
2 42788  97.3255  72.5893 0010785 204.9510 155.1207 15.23374321142232
SKCUBE                  
1 42789U 17036AA  20013.58214080  .00001152  00000-0  51541-4 0  9990
2 42789  97.3251  71.9393 0010590 207.2685 152.7997 15.23242080142066
VZLUSAT-1               
1 42790U 17036AB  20013.77542773  .00001550  00000-0  66766-4 0  9993
2 42790  97.3272  72.8350 0010199 204.5770 155.4982 15.24027862142136
ROBUSTA-1B              
1 42792U 17036AD  20014.14598723  .00001177  00000-0  52294-4 0  9999
2 42792  97.3252  72.6940 0010218 205.3605 154.7132 15.23423624142175
CICERO 6                
1 42793U 17036AE  20014.13791684  .00000748  00000-0  34843-4 0  9993
2 42793  97.3231  72.2770 0009444 207.2520 152.8223 15.22884816142225
D-SAT                   
1 42794U 17036AF  20014.03889256  .00000209  00000-0  23402-4 0  9997
2 42794  97.5139  54.2211 0126850 162.9910 197.5621 14.91202091139538
CORVUS BC2              
1 42846U 17042X   20014.12453727  .00000088  00000-0  13957-4 0  9991
2 42846  97.5435 264.4740 0011119  78.2345 282.0122 14.92048618136244
CORVUS BC1              
1 42847U 17042Y   20014.13074002  .00000006  00000-0  58627-5 0  9992
2 42847  97.5436 264.6217 0010773  77.7425 282.5000 14.92149415136242
MIRATA                  
1 43015U 17073C   20014.46047120  .00000575  00000-0  50237-4 0  9990
2 43015  97.7230 292.5588 0253701 193.7591 165.6620 14.79360325116302
MAKERSAT 0              
1 43016U 17073D   20014.51587165  .00000396  00000-0  36322-4 0  9995
2 43016  97.7265 292.8124 0256266 194.2798 165.1077 14.79009265116296
ASTERIA                 
1 43020U 98067NH  20014.28116021  .00060072  00000-0  26564-3 0  9998
2 43020  51.6411 320.8485 0001862 151.1890 208.9217 15.83851803122906
DELLINGR (RBLE)         
1 43021U 98067NJ  20014.50847558  .00009596  00000-0  94127-4 0  9995
2 43021  51.6379 349.3353 0001821 154.3115 205.7972 15.66833485122540
AEROCUBE 7B (OCSD B)    
1 43042U 17071F   20014.51553327  .00003157  00000-0  81094-4 0  9999
2 43042  51.6382 106.1955 0004406 193.4644 166.6225 15.42478470118451
AEROCUBE 7C (OCSD C)    
1 43043U 17071G   20014.51650759  .00003168  00000-0  81410-4 0  9991
2 43043  51.6382 106.2168 0004587 198.1684 161.9138 15.42456777118429
CHEFSAT                 
1 43044U 17071H   20013.83114330  .00006183  00000-0  13256-3 0  9998
2 43044  51.6389  99.5917 0004306 198.6459 161.4371 15.46141068118452
ASGARDIA 1              
1 43049U 17071N   20014.51716625  .00002947  00000-0  76121-4 0  9999
2 43049  51.6393 105.5250 0002088 208.7803 151.3068 15.42558269118420
ISARA                   
1 43050U 17071P   20013.66323158  .00005119  00000-0  11389-3 0  9999
2 43050  51.6373 102.1394 0001983 205.9716 154.1171 15.45436635118406
PROPCUBE 2 (FAUNA)      
1 43052U 17071R   20014.47978920  .00002586  00000-0  67164-4 0  9992
2 43052  51.6387 104.5446 0002057 205.3172 154.7713 15.42924800118434
CORVUS BC3              
1 43118U 18004H   20014.19849475  .00000724  00000-0  33697-4 0  9999
2 43118  97.4636  85.6070 0009087 231.8429 128.1990 15.23129984111369
MICROMAS-2A             
1 43131U 18004W   20014.46838124  .00001707  00000-0  71821-4 0  9996
2 43131  97.4673  87.1029 0008057 229.8773 130.1759 15.24747100111476
SPACEBEE-4              
1 43139U 18004AE  20014.16275946  .00002327  00000-0  93848-4 0  9990
2 43139  97.4695  87.6380 0007410 231.8101 128.2471 15.25823145111466
SPACEBEE-3              
1 43140U 18004AF  20014.45120089  .00002697  00000-0  10602-3 0  9997
2 43140  97.4707  88.3928 0007276 228.9260 131.1350 15.26541650111548
SPACEBEE-2              
1 43141U 18004AG  20014.19650564  .00003070  00000-0  11939-3 0  9995
2 43141  97.4719  88.3064 0007244 229.0559 131.0053 15.26785321111512
SPACEBEE-1              
1 43142U 18004AH  20013.86876369  .00003137  00000-0  12092-3 0  9997
2 43142  97.4720  88.1571 0007227 230.3190 129.7412 15.27063351111463
CICERO 7                
1 43143U 18004AJ  20014.14816432  .00001575  00000-0  66333-4 0  9997
2 43143  97.4655  86.9900 0006047 240.6423 119.4210 15.24836623111442
GOMX-4B                 
1 43196U 18015E   20014.08702953  .00000345  00000-0  17131-4 0  9998
2 43196  97.4171 144.0629 0017787 294.2154  65.7219 15.24113091108238
GOMX-4A                 
1 43197U 18015F   20014.53647991  .00000877  00000-0  38764-4 0  9994
2 43197  97.4165 144.5559 0017492 292.0065 198.2592 15.24274140108317
1KUNS-PF                
1 43466U 98067NP  20014.31645499  .00040241  00000-0  24495-3 0  9999
2 43466  51.6343 343.4095 0001397  93.1126 267.0034 15.77034719 95861
UBAKUSAT                
1 43467U 98067NQ  20014.40346882  .00016335  00000-0  14685-3 0  9991
2 43467  51.6361 355.3227 0002106 119.7352 240.3854 15.68399540 95721
